{"type": "FeatureCollection", "features": [ {"type": "Feature", "properties": {"norad_id": 34784, "name": "COSMOS 2251 DEB", "group": "cosmos-2251-debris", "lat": 1.4132111936084761, "lon": -27.26912533268504, "alt_km": 720.4907575045736, "timestamp": "2025-12-08T13:49:32.189354+00:00", "meta": {"OBJECT_NAME": "COSMOS 2251 DEB", "OBJECT_ID": "1993-036AAM", "EPOCH": "2025-12-08T07:14:38.956128", "MEAN_MOTION": 14.60748391, "ECCENTRICITY": 0.00495654, "INCLINATION": 74.0073, "RA_OF_ASC_NODE": 332.8501, "ARG_OF_PERICENTER": 143.4924, "MEAN_ANOMALY": 216.9638, "EPHEMERIS_TYPE": 0, "CLASSIFICATION_TYPE": "U", "NORAD_CAT_ID": 34784, "ELEMENT_SET_NO": 999, "REV_AT_EPOCH": 88470, "BSTAR": 0.00074489151, "MEAN_MOTION_DOT": 3.668e-05, "MEAN_MOTION_DDOT": 0}, "tle": {"line1": "1 34784U 93036AAM 25342.30183977  .00003668  00000+0  74489-3 0  9998", "line2": "2 34784  74.0073 332.8501 0049565 143.4924 216.9638 14.60748391884702"}}, "geometry": {"type": "Point", "coordinates": [-27.26912533268504, 1.4132111936084761]}}, {"type": "Feature", "properties": {"norad_id": 34790, "name": "COSMOS 2251 DEB", "group": "cosmos-2251-debris", "lat": -48.112536551547294, "lon": -127.386590589918, "alt_km": 744.0810395981016, "timestamp": "2025-12-08T13:49:32.189364+00:00", "meta": {"OBJECT_NAME": "COSMOS 2251 DEB", "OBJECT_ID": "1993-036AAT", "EPOCH": "2025-12-08T04:39:28.211328", "MEAN_MOTION": 14.24605557, "ECCENTRICITY": 0.01007268, "INCLINATION": 74.0545, "RA_OF_ASC_NODE": 251.89, "ARG_OF_PERICENTER": 314.4823, "MEAN_ANOMALY": 196.6536, "EPHEMERIS_TYPE": 0, "CLASSIFICATION_TYPE": "U", "NORAD_CAT_ID": 34790, "ELEMENT_SET_NO": 999, "REV_AT_EPOCH": 86508, "BSTAR": 0.0010779742, "MEAN_MOTION_DOT": 2.614e-05, "MEAN_MOTION_DDOT": 0}, "tle": {"line1": "1 34790U 93036AAT 25342.19407652  .00002614  00000+0  10780-2 0  9994", "line2": "2 34790  74.0545 251.8900 0100726 314.4823 196.6536 14.24605557865088"}}, "geometry": {"type": "Point", "coordinates": [-127.386590589918, -48.112536551547294]}}, {"type": "Feature", "properties": {"norad_id": 34792, "name": "COSMOS 2251 DEB", "group": "cosmos-2251-debris", "lat": 29.853353730782437, "lon": -11.857051923900029, "alt_km": 709.355168500937, "timestamp": "2025-12-08T13:49:32.189375+00:00", "meta": {"OBJECT_NAME": "COSMOS 2251 DEB", "OBJECT_ID": "1993-036AAV", "EPOCH": "2025-12-08T07:22:25.090176", "MEAN_MOTION": 14.55897726, "ECCENTRICITY": 0.00125304, "INCLINATION": 74.0173, "RA_OF_ASC_NODE": 178.1209, "ARG_OF_PERICENTER": 271.8728, "MEAN_ANOMALY": 268.5308, "EPHEMERIS_TYPE": 0, "CLASSIFICATION_TYPE": "U", "NORAD_CAT_ID": 34792, "ELEMENT_SET_NO": 999, "REV_AT_EPOCH": 87585, "BSTAR": 0.0012637606, "MEAN_MOTION_DOT": 5.53e-05, "MEAN_MOTION_DDOT": 0}, "tle": {"line1": "1 34792U 93036AAV 25342.30723484  .00005530  00000+0  12638-2 0  9997", "line2": "2 34792  74.0173 178.1209 0012530 271.8728 268.5308 14.55897726875852"}}, "geometry": {"type": "Point", "coordinates": [-11.857051923900029, 29.853353730782437]}}, {"type": "Feature", "properties": {"norad_id": 34793, "name": "COSMOS 2251 DEB", "group": "cosmos-2251-debris", "lat": -6.587896978936941, "lon": 79.9576317757512, "alt_km": 790.9595807371988, "timestamp": "2025-12-08T13:49:32.189385+00:00", "meta": {"OBJECT_NAME": "COSMOS 2251 DEB", "OBJECT_ID": "1993-036AAW", "EPOCH": "2025-12-08T05:18:52.943040", "MEAN_MOTION": 14.38633452, "ECCENTRICITY": 0.00501054, "INCLINATION": 74.0031, "RA_OF_ASC_NODE": 258.7139, "ARG_OF_PERICENTER": 54.0287, "MEAN_ANOMALY": 96.4202, "EPHEMERIS_TYPE": 0, "CLASSIFICATION_TYPE": "U", "NORAD_CAT_ID": 34793, "ELEMENT_SET_NO": 999, "REV_AT_EPOCH": 87265, "BSTAR": 0.0005097631, "MEAN_MOTION_DOT": 1.559e-05, "MEAN_MOTION_DDOT": 0}, "tle": {"line1": "1 34793U 93036AAW 25342.22144610  .00001559  00000+0  50976-3 0  9992", "line2": "2 34793  74.0031 258.7139 0050105  54.0287  96.4202 14.38633452872655"}}, "geometry": {"type": "Point", "coordinates": [79.9576317757512, -6.587896978936941]}}, {"type": "Feature", "properties": {"norad_id": 34796, "name": "COSMOS 2251 DEB", "group": "cosmos-2251-debris", "lat": 46.95103754013997, "lon": 26.29897922125296, "alt_km": 793.681992375894, "timestamp": "2025-12-08T13:49:32.189395+00:00", "meta": {"OBJECT_NAME": "COSMOS 2251 DEB", "OBJECT_ID": "1993-036AAZ", "EPOCH": "2025-12-07T17:35:44.416608", "MEAN_MOTION": 14.4865249, "ECCENTRICITY": 0.01001489, "INCLINATION": 74.0301, "RA_OF_ASC_NODE": 225.7308, "ARG_OF_PERICENTER": 328.8983, "MEAN_ANOMALY": 87.0781, "EPHEMERIS_TYPE": 0, "CLASSIFICATION_TYPE": "U", "NORAD_CAT_ID": 34796, "ELEMENT_SET_NO": 999, "REV_AT_EPOCH": 87955, "BSTAR": 0.001174251, "MEAN_MOTION_DOT": 4.684e-05, "MEAN_MOTION_DDOT": 0}, "tle": {"line1": "1 34796U 93036AAZ 25341.73315297  .00004684  00000+0  11743-2 0  9991", "line2": "2 34796  74.0301 225.7308 0100148 328.8983  87.0781 14.48652490879556"}}, "geometry": {"type": "Point", "coordinates": [26.29897922125296, 46.95103754013997]}}, {"type": "Feature", "properties": {"norad_id": 34797, "name": "COSMOS 2251 DEB", "group": "cosmos-2251-debris", "lat": -16.967859186961658, "lon": 102.71077943847916, "alt_km": 780.0469583462036, "timestamp": "2025-12-08T13:49:32.189405+00:00", "meta": {"OBJECT_NAME": "COSMOS 2251 DEB", "OBJECT_ID": "1993-036ABA", "EPOCH": "2025-12-08T02:15:30.483648", "MEAN_MOTION": 14.42690241, "ECCENTRICITY": 0.00721111, "INCLINATION": 73.9779, "RA_OF_ASC_NODE": 108.638, "ARG_OF_PERICENTER": 222.8023, "MEAN_ANOMALY": 136.7506, "EPHEMERIS_TYPE": 0, "CLASSIFICATION_TYPE": "U", "NORAD_CAT_ID": 34797, "ELEMENT_SET_NO": 999, "REV_AT_EPOCH": 87348, "BSTAR": 0.0033221371, "MEAN_MOTION_DOT": 0.00011397, "MEAN_MOTION_DDOT": 0}, "tle": {"line1": "1 34797U 93036ABA 25342.09410282  .00011397  00000+0  33221-2 0  9996", "line2": "2 34797  73.9779 108.6380 0072111 222.8023 136.7506 14.42690241873482"}}, "geometry": {"type": "Point", "coordinates": [102.71077943847916, -16.967859186961658]}}, {"type": "Feature", "properties": {"norad_id": 34814, "name": "COSMOS 2251 DEB", "group": "cosmos-2251-debris", "lat": 50.074640002478404, "lon": -6.646221389485012, "alt_km": 803.7544270652825, "timestamp": "2025-12-08T13:49:32.189416+00:00", "meta": {"OBJECT_NAME": "COSMOS 2251 DEB", "OBJECT_ID": "1993-036ABD", "EPOCH": "2025-12-08T05:18:03.614688", "MEAN_MOTION": 14.36862714, "ECCENTRICITY": 0.00565126, "INCLINATION": 73.8958, "RA_OF_ASC_NODE": 333.8174, "ARG_OF_PERICENTER": 224.1506, "MEAN_ANOMALY": 152.4116, "EPHEMERIS_TYPE": 0, "CLASSIFICATION_TYPE": "U", "NORAD_CAT_ID": 34814, "ELEMENT_SET_NO": 999, "REV_AT_EPOCH": 87268, "BSTAR": 0.001254214, "MEAN_MOTION_DOT": 3.751e-05, "MEAN_MOTION_DDOT": 0}, "tle": {"line1": "1 34814U 93036ABD 25342.22087517  .00003751  00000+0  12542-2 0  9990", "line2": "2 34814  73.8958 333.8174 0056512 224.1506 152.4116 14.36862714872683"}}, "geometry": {"type": "Point", "coordinates": [-6.646221389485012, 50.074640002478404]}}, {"type": "Feature", "properties": {"norad_id": 34815, "name": "COSMOS 2251 DEB", "group": "cosmos-2251-debris", "lat": -48.693278900413425, "lon": -129.024039896417, "alt_km": 600.9145326759917, "timestamp": "2025-12-08T13:49:32.189426+00:00", "meta": {"OBJECT_NAME": "COSMOS 2251 DEB", "OBJECT_ID": "1993-036ABE", "EPOCH": "2025-12-08T04:18:34.462656", "MEAN_MOTION": 14.78216739, "ECCENTRICITY": 0.00589197, "INCLINATION": 74.0454, "RA_OF_ASC_NODE": 250.7536, "ARG_OF_PERICENTER": 320.8633, "MEAN_ANOMALY": 38.8287, "EPHEMERIS_TYPE": 0, "CLASSIFICATION_TYPE": "U", "NORAD_CAT_ID": 34815, "ELEMENT_SET_NO": 999, "REV_AT_EPOCH": 88560, "BSTAR": 0.0012864435, "MEAN_MOTION_DOT": 9.584e-05, "MEAN_MOTION_DDOT": 0}, "tle": {"line1": "1 34815U 93036ABE 25342.17956554  .00009584  00000+0  12864-2 0  9998", "line2": "2 34815  74.0454 250.7536 0058919 320.8633  38.8287 14.78216739885603"}}, "geometry": {"type": "Point", "coordinates": [-129.024039896417, -48.693278900413425]}}, {"type": "Feature", "properties": {"norad_id": 34816, "name": "COSMOS 2251 DEB", "group": "cosmos-2251-debris", "lat": -70.89938535581923, "lon": 26.507707809393395, "alt_km": 846.0810715263706, "timestamp": "2025-12-08T13:49:32.189437+00:00", "meta": {"OBJECT_NAME": "COSMOS 2251 DEB", "OBJECT_ID": "1993-036ABF", "EPOCH": "2025-12-06T22:26:27.336768", "MEAN_MOTION": 13.5829822, "ECCENTRICITY": 0.03736298, "INCLINATION": 73.886, "RA_OF_ASC_NODE": 152.5929, "ARG_OF_PERICENTER": 218.068, "MEAN_ANOMALY": 297.1187, "EPHEMERIS_TYPE": 0, "CLASSIFICATION_TYPE": "U", "NORAD_CAT_ID": 34816, "ELEMENT_SET_NO": 999, "REV_AT_EPOCH": 82704, "BSTAR": 0.0017880706, "MEAN_MOTION_DOT": 2.026e-05, "MEAN_MOTION_DDOT": 0}, "tle": {"line1": "1 34816U 93036ABF 25340.93503862  .00002026  00000+0  17881-2 0  9999", "line2": "2 34816  73.8860 152.5929 0373629 218.0680 297.1187 13.58298220827040"}}, "geometry": {"type": "Point", "coordinates": [26.507707809393395, -70.89938535581923]}}, {"type": "Feature", "properties": {"norad_id": 34818, "name": "COSMOS 2251 DEB", "group": "cosmos-2251-debris", "lat": 52.93417667981068, "lon": 102.32525200031573, "alt_km": 766.9314015405471, "timestamp": "2025-12-08T13:49:32.189448+00:00", "meta": {"OBJECT_NAME": "COSMOS 2251 DEB", "OBJECT_ID": "1993-036ABH", "EPOCH": "2025-12-08T06:53:07.173312", "MEAN_MOTION": 14.36958204, "ECCENTRICITY": 0.00239558, "INCLINATION": 74.0356, "RA_OF_ASC_NODE": 305.1267, "ARG_OF_PERICENTER": 21.8892, "MEAN_ANOMALY": 46.3531, "EPHEMERIS_TYPE": 0, "CLASSIFICATION_TYPE": "U", "NORAD_CAT_ID": 34818, "ELEMENT_SET_NO": 999, "REV_AT_EPOCH": 87306, "BSTAR": 0.00043888373, "MEAN_MOTION_DOT": 1.278e-05, "MEAN_MOTION_DDOT": 0}, "tle": {"line1": "1 34818U 93036ABH 25342.28688858  .00001278  00000+0  43888-3 0  9995", "line2": "2 34818  74.0356 305.1267 0023955  21.8892  46.3531 14.36958204873067"}}, "geometry": {"type": "Point", "coordinates": [102.32525200031573, 52.93417667981068]}}]}